[{"OBJECT_NAME":"STARLINK-34726","OBJECT_ID":"2025-158D","EPOCH":"2025-08-18T14:16:35.822784","MEAN_MOTION":15.49219486,"ECCENTRICITY":0.0001733,"INCLINATION":97.6037,"RA_OF_ASC_NODE":92.9293,"ARG_OF_PERICENTER":99.18,"MEAN_ANOMALY":260.9647,"EPHEMERIS_TYPE":0,"CLASSIFICATION_TYPE":"U","NORAD_CAT_ID":64935,"ELEMENT_SET_NO":999,"REV_AT_EPOCH":473,"BSTAR":0.00064255,"MEAN_MOTION_DOT":0.00035046,"MEAN_MOTION_DDOT":0},{"OBJECT_NAME":"STARLINK-34529","OBJECT_ID":"2025-158E","EPOCH":"2025-08-18T14:00:01.999872","MEAN_MOTION":15.39317994,"ECCENTRICITY":0.0001852,"INCLINATION":97.6042,"RA_OF_ASC_NODE":92.8555,"ARG_OF_PERICENTER":81.652,"MEAN_ANOMALY":73.2058,"EPHEMERIS_TYPE":0,"CLASSIFICATION_TYPE":"U","NORAD_CAT_ID":64936,"ELEMENT_SET_NO":999,"REV_AT_EPOCH":480,"BSTAR":0.0015002,"MEAN_MOTION_DOT":0.00058827,"MEAN_MOTION_DDOT":0},{"OBJECT_NAME":"STARLINK-34743","OBJECT_ID":"2025-158F","EPOCH":"2025-08-18T14:00:01.999872","MEAN_MOTION":15.39305746,"ECCENTRICITY":0.0001904,"INCLINATION":97.604,"RA_OF_ASC_NODE":92.8969,"ARG_OF_PERICENTER":90.6859,"MEAN_ANOMALY":154.1785,"EPHEMERIS_TYPE":0,"CLASSIFICATION_TYPE":"U","NORAD_CAT_ID":64937,"ELEMENT_SET_NO":999,"REV_AT_EPOCH":480,"BSTAR":0.0016121,"MEAN_MOTION_DOT":0.00063233,"MEAN_MOTION_DDOT":0},{"OBJECT_NAME":"STARLINK-34730","OBJECT_ID":"2025-158G","EPOCH":"2025-08-18T12:42:17.627616","MEAN_MOTION":15.48583966,"ECCENTRICITY":0.0001905,"INCLINATION":97.6033,"RA_OF_ASC_NODE":92.8623,"ARG_OF_PERICENTER":124.04,"MEAN_ANOMALY":236.1031,"EPHEMERIS_TYPE":0,"CLASSIFICATION_TYPE":"U","NORAD_CAT_ID":64938,"ELEMENT_SET_NO":999,"REV_AT_EPOCH":466,"BSTAR":-0.0072611,"MEAN_MOTION_DOT":-0.00369248,"MEAN_MOTION_DDOT":0},{"OBJECT_NAME":"STARLINK-34714","OBJECT_ID":"2025-158H","EPOCH":"2025-08-18T14:14:36.894048","MEAN_MOTION":15.49209827,"ECCENTRICITY":0.0001837,"INCLINATION":97.6026,"RA_OF_ASC_NODE":92.9306,"ARG_OF_PERICENTER":92.3286,"MEAN_ANOMALY":267.8175,"EPHEMERIS_TYPE":0,"CLASSIFICATION_TYPE":"U","NORAD_CAT_ID":64939,"ELEMENT_SET_NO":999,"REV_AT_EPOCH":457,"BSTAR":0.00068459,"MEAN_MOTION_DOT":0.00037344,"MEAN_MOTION_DDOT":0},{"OBJECT_NAME":"STARLINK-34755","OBJECT_ID":"2025-158J","EPOCH":"2025-08-18T13:21:03.023136","MEAN_MOTION":15.57132895,"ECCENTRICITY":0.0002064,"INCLINATION":97.6031,"RA_OF_ASC_NODE":92.982,"ARG_OF_PERICENTER":89.8572,"MEAN_ANOMALY":270.2919,"EPHEMERIS_TYPE":0,"CLASSIFICATION_TYPE":"U","NORAD_CAT_ID":64940,"ELEMENT_SET_NO":999,"REV_AT_EPOCH":467,"BSTAR":0.00085401,"MEAN_MOTION_DOT":0.00062214,"MEAN_MOTION_DDOT":0},{"OBJECT_NAME":"STARLINK-34740","OBJECT_ID":"2025-158K","EPOCH":"2025-08-18T14:00:01.999872","MEAN_MOTION":15.39321717,"ECCENTRICITY":0.0001977,"INCLINATION":97.6043,"RA_OF_ASC_NODE":92.8645,"ARG_OF_PERICENTER":79.5466,"MEAN_ANOMALY":97.3021,"EPHEMERIS_TYPE":0,"CLASSIFICATION_TYPE":"U","NORAD_CAT_ID":64941,"ELEMENT_SET_NO":999,"REV_AT_EPOCH":474,"BSTAR":0.0014324,"MEAN_MOTION_DOT":0.00056152,"MEAN_MOTION_DDOT":0},{"OBJECT_NAME":"STARLINK-34742","OBJECT_ID":"2025-158L","EPOCH":"2025-08-18T14:00:01.999872","MEAN_MOTION":15.39317778,"ECCENTRICITY":0.0002052,"INCLINATION":97.604,"RA_OF_ASC_NODE":92.885,"ARG_OF_PERICENTER":98.1633,"MEAN_ANOMALY":124.608,"EPHEMERIS_TYPE":0,"CLASSIFICATION_TYPE":"U","NORAD_CAT_ID":64942,"ELEMENT_SET_NO":999,"REV_AT_EPOCH":480,"BSTAR":0.0013991,"MEAN_MOTION_DOT":0.00054829,"MEAN_MOTION_DDOT":0},{"OBJECT_NAME":"STARLINK-34719","OBJECT_ID":"2025-158M","EPOCH":"2025-08-18T14:00:01.999872","MEAN_MOTION":15.3930004,"ECCENTRICITY":0.0001948,"INCLINATION":97.6033,"RA_OF_ASC_NODE":92.9074,"ARG_OF_PERICENTER":68.6345,"MEAN_ANOMALY":198.2376,"EPHEMERIS_TYPE":0,"CLASSIFICATION_TYPE":"U","NORAD_CAT_ID":64943,"ELEMENT_SET_NO":999,"REV_AT_EPOCH":480,"BSTAR":0.0014877,"MEAN_MOTION_DOT":0.00058298,"MEAN_MOTION_DDOT":0},{"OBJECT_NAME":"STARLINK-34373","OBJECT_ID":"2025-158N","EPOCH":"2025-08-18T14:00:01.999872","MEAN_MOTION":15.44389146,"ECCENTRICITY":0.0002153,"INCLINATION":97.6039,"RA_OF_ASC_NODE":92.9194,"ARG_OF_PERICENTER":88.8726,"MEAN_ANOMALY":211.8997,"EPHEMERIS_TYPE":0,"CLASSIFICATION_TYPE":"U","NORAD_CAT_ID":64944,"ELEMENT_SET_NO":999,"REV_AT_EPOCH":474,"BSTAR":-0.04707,"MEAN_MOTION_DOT":-0.01944335,"MEAN_MOTION_DDOT":0},{"OBJECT_NAME":"STARLINK-34758","OBJECT_ID":"2025-158P","EPOCH":"2025-08-18T14:11:41.434656","MEAN_MOTION":15.48877809,"ECCENTRICITY":0.0001461,"INCLINATION":97.603,"RA_OF_ASC_NODE":92.9322,"ARG_OF_PERICENTER":138.2122,"MEAN_ANOMALY":221.9239,"EPHEMERIS_TYPE":0,"CLASSIFICATION_TYPE":"U","NORAD_CAT_ID":64945,"ELEMENT_SET_NO":999,"REV_AT_EPOCH":473,"BSTAR":-0.0023463,"MEAN_MOTION_DOT":-0.0012437,"MEAN_MOTION_DDOT":0},{"OBJECT_NAME":"STARLINK-34753","OBJECT_ID":"2025-158Q","EPOCH":"2025-08-18T09:31:33.211488","MEAN_MOTION":15.51261261,"ECCENTRICITY":0.0009115,"INCLINATION":97.6036,"RA_OF_ASC_NODE":92.7309,"ARG_OF_PERICENTER":241.7204,"MEAN_ANOMALY":118.3128,"EPHEMERIS_TYPE":0,"CLASSIFICATION_TYPE":"U","NORAD_CAT_ID":64946,"ELEMENT_SET_NO":999,"REV_AT_EPOCH":470,"BSTAR":0.01479,"MEAN_MOTION_DOT":0.00944319,"MEAN_MOTION_DDOT":0},{"OBJECT_NAME":"STARLINK-34747","OBJECT_ID":"2025-158R","EPOCH":"2025-08-18T14:00:01.999872","MEAN_MOTION":15.49157492,"ECCENTRICITY":0.0001584,"INCLINATION":97.6038,"RA_OF_ASC_NODE":92.9274,"ARG_OF_PERICENTER":85.1432,"MEAN_ANOMALY":233.9364,"EPHEMERIS_TYPE":0,"CLASSIFICATION_TYPE":"U","NORAD_CAT_ID":64947,"ELEMENT_SET_NO":999,"REV_AT_EPOCH":480,"BSTAR":0.0013858,"MEAN_MOTION_DOT":0.00075928,"MEAN_MOTION_DDOT":0},{"OBJECT_NAME":"STARLINK-34630","OBJECT_ID":"2025-158S","EPOCH":"2025-08-18T14:00:01.999872","MEAN_MOTION":15.39299376,"ECCENTRICITY":0.0001882,"INCLINATION":97.6032,"RA_OF_ASC_NODE":92.9124,"ARG_OF_PERICENTER":78.3625,"MEAN_ANOMALY":200.5166,"EPHEMERIS_TYPE":0,"CLASSIFICATION_TYPE":"U","NORAD_CAT_ID":64948,"ELEMENT_SET_NO":999,"REV_AT_EPOCH":474,"BSTAR":0.0014538,"MEAN_MOTION_DOT":0.00056957,"MEAN_MOTION_DDOT":0},{"OBJECT_NAME":"STARLINK-34689","OBJECT_ID":"2025-158T","EPOCH":"2025-08-18T14:00:01.999872","MEAN_MOTION":15.39321575,"ECCENTRICITY":0.0001725,"INCLINATION":97.6039,"RA_OF_ASC_NODE":92.8705,"ARG_OF_PERICENTER":90.4515,"MEAN_ANOMALY":98.3895,"EPHEMERIS_TYPE":0,"CLASSIFICATION_TYPE":"U","NORAD_CAT_ID":64949,"ELEMENT_SET_NO":999,"REV_AT_EPOCH":480,"BSTAR":0.0016144,"MEAN_MOTION_DOT":0.00063357,"MEAN_MOTION_DDOT":0},{"OBJECT_NAME":"STARLINK-34586","OBJECT_ID":"2025-158U","EPOCH":"2025-08-17T08:41:59.706240","MEAN_MOTION":15.49128996,"ECCENTRICITY":0.0004092,"INCLINATION":97.6043,"RA_OF_ASC_NODE":91.6421,"ARG_OF_PERICENTER":48.0395,"MEAN_ANOMALY":312.1204,"EPHEMERIS_TYPE":0,"CLASSIFICATION_TYPE":"U","NORAD_CAT_ID":64950,"ELEMENT_SET_NO":999,"REV_AT_EPOCH":454,"BSTAR":0.0011862,"MEAN_MOTION_DOT":0.00064837,"MEAN_MOTION_DDOT":0},{"OBJECT_NAME":"STARLINK-34738","OBJECT_ID":"2025-158V","EPOCH":"2025-08-18T14:08:39.490944","MEAN_MOTION":15.49218569,"ECCENTRICITY":0.0001669,"INCLINATION":97.6033,"RA_OF_ASC_NODE":92.9365,"ARG_OF_PERICENTER":105.9185,"MEAN_ANOMALY":254.225,"EPHEMERIS_TYPE":0,"CLASSIFICATION_TYPE":"U","NORAD_CAT_ID":64951,"ELEMENT_SET_NO":999,"REV_AT_EPOCH":473,"BSTAR":0.00054973,"MEAN_MOTION_DOT":0.00029949,"MEAN_MOTION_DDOT":0},{"OBJECT_NAME":"STARLINK-34744","OBJECT_ID":"2025-158W","EPOCH":"2025-08-18T14:00:01.999872","MEAN_MOTION":15.39275689,"ECCENTRICITY":0.0001962,"INCLINATION":97.6036,"RA_OF_ASC_NODE":92.9001,"ARG_OF_PERICENTER":80.1057,"MEAN_ANOMALY":174.6989,"EPHEMERIS_TYPE":0,"CLASSIFICATION_TYPE":"U","NORAD_CAT_ID":64952,"ELEMENT_SET_NO":999,"REV_AT_EPOCH":474,"BSTAR":0.0017448,"MEAN_MOTION_DOT":0.00068425,"MEAN_MOTION_DDOT":0},{"OBJECT_NAME":"STARLINK-34701","OBJECT_ID":"2025-158X","EPOCH":"2025-08-18T14:00:01.999872","MEAN_MOTION":15.39327905,"ECCENTRICITY":0.0001795,"INCLINATION":97.6041,"RA_OF_ASC_NODE":92.8904,"ARG_OF_PERICENTER":83.518,"MEAN_ANOMALY":149.3034,"EPHEMERIS_TYPE":0,"CLASSIFICATION_TYPE":"U","NORAD_CAT_ID":64953,"ELEMENT_SET_NO":999,"REV_AT_EPOCH":474,"BSTAR":0.0015082,"MEAN_MOTION_DOT":0.00059163,"MEAN_MOTION_DDOT":0},{"OBJECT_NAME":"STARLINK-34761","OBJECT_ID":"2025-158Y","EPOCH":"2025-08-18T14:00:01.999872","MEAN_MOTION":15.42262852,"ECCENTRICITY":0.0002352,"INCLINATION":97.6037,"RA_OF_ASC_NODE":92.9242,"ARG_OF_PERICENTER":114.9245,"MEAN_ANOMALY":185.8336,"EPHEMERIS_TYPE":0,"CLASSIFICATION_TYPE":"U","NORAD_CAT_ID":64954,"ELEMENT_SET_NO":999,"REV_AT_EPOCH":474,"BSTAR":-0.087778,"MEAN_MOTION_DOT":-0.03286355,"MEAN_MOTION_DDOT":0},{"OBJECT_NAME":"STARLINK-34732","OBJECT_ID":"2025-158Z","EPOCH":"2025-08-18T14:06:54.752544","MEAN_MOTION":15.48281843,"ECCENTRICITY":0.0001168,"INCLINATION":97.6031,"RA_OF_ASC_NODE":92.9371,"ARG_OF_PERICENTER":347.8918,"MEAN_ANOMALY":12.2303,"EPHEMERIS_TYPE":0,"CLASSIFICATION_TYPE":"U","NORAD_CAT_ID":64955,"ELEMENT_SET_NO":999,"REV_AT_EPOCH":473,"BSTAR":-0.0044567,"MEAN_MOTION_DOT":-0.00228277,"MEAN_MOTION_DDOT":0},{"OBJECT_NAME":"STARLINK-34617","OBJECT_ID":"2025-161A","EPOCH":"2025-08-18T14:00:01.999872","MEAN_MOTION":15.62666539,"ECCENTRICITY":0.0001083,"INCLINATION":53.1601,"RA_OF_ASC_NODE":161.5897,"ARG_OF_PERICENTER":92.9462,"MEAN_ANOMALY":44.2402,"EPHEMERIS_TYPE":0,"CLASSIFICATION_TYPE":"U","NORAD_CAT_ID":65015,"ELEMENT_SET_NO":999,"REV_AT_EPOCH":421,"BSTAR":-0.020275,"MEAN_MOTION_DOT":-0.01634937,"MEAN_MOTION_DDOT":0},{"OBJECT_NAME":"STARLINK-34627","OBJECT_ID":"2025-161B","EPOCH":"2025-08-18T14:00:01.999872","MEAN_MOTION":15.62672159,"ECCENTRICITY":9.53e-5,"INCLINATION":53.1602,"RA_OF_ASC_NODE":161.5862,"ARG_OF_PERICENTER":68.6183,"MEAN_ANOMALY":70.481,"EPHEMERIS_TYPE":0,"CLASSIFICATION_TYPE":"U","NORAD_CAT_ID":65016,"ELEMENT_SET_NO":999,"REV_AT_EPOCH":432,"BSTAR":-0.020364,"MEAN_MOTION_DOT":-0.01641515,"MEAN_MOTION_DDOT":0}]
